ONEWEB-0044             
1 45150U 20008V   24025.93177957 -.00000263  00000+0 -79042-3 0  9993
2 45150  87.8901 209.7276 0001397 108.0456 252.0824 13.10375279194114
ONEWEB-0045             
1 45151U 20008W   24025.94598874 -.00000388  00000+0 -11309-2 0  9999
2 45151  87.8970 194.6061 0001509  95.9177 264.2123 13.11415891195950
ONEWEB-0048             
1 45153U 20008Y   24025.91877892 -.00000628  00000+0 -18360-2 0  9999
2 45153  87.8903 209.7447 0001473  96.4472 263.6823 13.10374890193442
ONEWEB-0049             
1 45154U 20008Z   24025.92039852 -.00000588  00000+0 -17216-2 0  9991
2 45154  87.8905 209.7178 0001008 108.0438 252.0799 13.10372964193660
ONEWEB-0051             
1 45155U 20008AA  24025.94436687 -.00000379  00000+0 -11042-2 0  9990
2 45155  87.8972 194.6475 0001577  91.5095 268.6214 13.11415038196639
ONEWEB-0052             
1 45156U 20008AB  24025.91715339 -.00001203  00000+0 -34832-2 0  9991
2 45156  87.8896 209.7004 0000989 114.8263 245.2967 13.10374849193572
